{
  "type": "FeatureCollection",
  "features": [
    {
      "type": "Feature",
      "properties": {
        "norad_id": 35080,
        "name": "IRIDIUM 33 DEB",
        "group": "iridium-33-debris",
        "lat": 48.75609626684733,
        "lon": -139.19441983138844,
        "alt_km": 560.2282806390422,
        "timestamp": "2025-12-27T20:30:59.665713+00:00",
        "meta_object_name": "IRIDIUM 33 DEB",
        "meta_object_id": "1997-051PF",
        "meta_epoch": "2025-12-26T21:19:55.703424",
        "meta_mean_motion": 14.87648712,
        "meta_eccentricity": 0.0057997,
        "meta_inclination": 86.2085,
        "meta_ra_of_asc_node": 45.606,
        "meta_arg_of_pericenter": 130.4806,
        "meta_mean_anomaly": 230.1496,
        "meta_ephemeris_type": 0,
        "meta_classification_type": "U",
        "meta_norad_cat_id": 35080,
        "meta_element_set_no": 999,
        "meta_rev_at_epoch": 69898,
        "meta_bstar": 0.0073607,
        "meta_mean_motion_dot": 0.00069659,
        "meta_mean_motion_ddot": 0,
        "tle_line1": "1 35080U 97051PF  25360.88883916  .00069659  00000+0  73607-2 0  9994",
        "tle_line2": "2 35080  86.2085  45.6060 0057997 130.4806 230.1496 14.87648712698980"
      },
      "geometry": {
        "type": "Point",
        "coordinates": [
          -139.19441983138844,
          48.75609626684733
        ]
      }
    },
    {
      "type": "Feature",
      "properties": {
        "norad_id": 35297,
        "name": "IRIDIUM 33 DEB",
        "group": "iridium-33-debris",
        "lat": 63.18844492148368,
        "lon": -130.8784002422694,
        "alt_km": 723.1679973375803,
        "timestamp": "2025-12-27T20:30:59.665724+00:00",
        "meta_object_name": "IRIDIUM 33 DEB",
        "meta_object_id": "1997-051PM",
        "meta_epoch": "2025-12-26T10:44:46.667040",
        "meta_mean_motion": 14.4521519,
        "meta_eccentricity": 0.0018076,
        "meta_inclination": 86.3846,
        "meta_ra_of_asc_node": 56.909,
        "meta_arg_of_pericenter": 100.7298,
        "meta_mean_anomaly": 259.594,
        "meta_ephemeris_type": 0,
        "meta_classification_type": "U",
        "meta_norad_cat_id": 35297,
        "meta_element_set_no": 999,
        "meta_rev_at_epoch": 70624,
        "meta_bstar": 0.00060666,
        "meta_mean_motion_dot": 2.149e-05,
        "meta_mean_motion_ddot": 0,
        "tle_line1": "1 35297U 97051PM  25360.44776235  .00002149  00000+0  60666-3 0  9994",
        "tle_line2": "2 35297  86.3846  56.9090 0018076 100.7298 259.5940 14.45215190706246"
      },
      "geometry": {
        "type": "Point",
        "coordinates": [
          -130.8784002422694,
          63.18844492148368
        ]
      }
    },
    {
      "type": "Feature",
      "properties": {
        "norad_id": 35299,
        "name": "IRIDIUM 33 DEB",
        "group": "iridium-33-debris",
        "lat": 3.1275185203230356,
        "lon": -153.598488958894,
        "alt_km": 780.3461867718033,
        "timestamp": "2025-12-27T20:30:59.665734+00:00",
        "meta_object_name": "IRIDIUM 33 DEB",
        "meta_object_id": "1997-051PP",
        "meta_epoch": "2025-12-27T08:05:58.634016",
        "meta_mean_motion": 14.4093611,
        "meta_eccentricity": 0.0058386,
        "meta_inclination": 86.2877,
        "meta_ra_of_asc_node": 26.83,
        "meta_arg_of_pericenter": 55.7915,
        "meta_mean_anomaly": 318.2873,
        "meta_ephemeris_type": 0,
        "meta_classification_type": "U",
        "meta_norad_cat_id": 35299,
        "meta_element_set_no": 999,
        "meta_rev_at_epoch": 86541,
        "meta_bstar": 0.00093759,
        "meta_mean_motion_dot": 3.09e-05,
        "meta_mean_motion_ddot": 0,
        "tle_line1": "1 35299U 97051PP  25361.33748419  .00003090  00000+0  93759-3 0  9993",
        "tle_line2": "2 35299  86.2877  26.8300 0058386  55.7915 318.2873 14.40936110865414"
      },
      "geometry": {
        "type": "Point",
        "coordinates": [
          -153.598488958894,
          3.1275185203230356
        ]
      }
    },
    {
      "type": "Feature",
      "properties": {
        "norad_id": 35480,
        "name": "IRIDIUM 33 DEB",
        "group": "iridium-33-debris",
        "lat": 39.359358646154554,
        "lon": 21.353781162767934,
        "alt_km": 712.8191113100984,
        "timestamp": "2025-12-27T20:30:59.665743+00:00",
        "meta_object_name": "IRIDIUM 33 DEB",
        "meta_object_id": "1997-051QA",
        "meta_epoch": "2025-12-26T19:29:20.805504",
        "meta_mean_motion": 14.49821486,
        "meta_eccentricity": 0.00157721,
        "meta_inclination": 86.3559,
        "meta_ra_of_asc_node": 18.8095,
        "meta_arg_of_pericenter": 63.8067,
        "meta_mean_anomaly": 296.4757,
        "meta_ephemeris_type": 0,
        "meta_classification_type": "U",
        "meta_norad_cat_id": 35480,
        "meta_element_set_no": 999,
        "meta_rev_at_epoch": 87235,
        "meta_bstar": 0.00059301191,
        "meta_mean_motion_dot": 2.31e-05,
        "meta_mean_motion_ddot": 0,
        "tle_line1": "1 35480U 97051QA  25360.81204636  .00002310  00000+0  59301-3 0  9994",
        "tle_line2": "2 35480  86.3559  18.8095 0015772  63.8067 296.4757 14.49821486872353"
      },
      "geometry": {
        "type": "Point",
        "coordinates": [
          21.353781162767934,
          39.359358646154554
        ]
      }
    },
    {
      "type": "Feature",
      "properties": {
        "norad_id": 35484,
        "name": "IRIDIUM 33 DEB",
        "group": "iridium-33-debris",
        "lat": 3.254268473710111,
        "lon": -14.12262435214319,
        "alt_km": 565.4013829518326,
        "timestamp": "2025-12-27T20:30:59.665754+00:00",
        "meta_object_name": "IRIDIUM 33 DEB",
        "meta_object_id": "1997-051QE",
        "meta_epoch": "2025-12-23T05:59:10.354560",
        "meta_mean_motion": 14.99264182,
        "meta_eccentricity": 0.00245796,
        "meta_inclination": 86.3609,
        "meta_ra_of_asc_node": 347.8264,
        "meta_arg_of_pericenter": 91.5392,
        "meta_mean_anomaly": 268.8655,
        "meta_ephemeris_type": 0,
        "meta_classification_type": "U",
        "meta_norad_cat_id": 35484,
        "meta_element_set_no": 999,
        "meta_rev_at_epoch": 62173,
        "meta_bstar": 0.0029536278,
        "meta_mean_motion_dot": 0.00036413,
        "meta_mean_motion_ddot": 0,
        "tle_line1": "1 35484U 97051QE  25357.24942540  .00036413  00000+0  29536-2 0  9991",
        "tle_line2": "2 35484  86.3609 347.8264 0024579  91.5392 268.8655 14.99264182621733"
      },
      "geometry": {
        "type": "Point",
        "coordinates": [
          -14.12262435214319,
          3.254268473710111
        ]
      }
    },
    {
      "type": "Feature",
      "properties": {
        "norad_id": 35488,
        "name": "IRIDIUM 33 DEB",
        "group": "iridium-33-debris",
        "lat": -28.60306703107552,
        "lon": -68.10055845119943,
        "alt_km": 606.4144015248457,
        "timestamp": "2025-12-27T20:30:59.665764+00:00",
        "meta_object_name": "IRIDIUM 33 DEB",
        "meta_object_id": "1997-051QJ",
        "meta_epoch": "2025-12-27T02:50:12.410016",
        "meta_mean_motion": 14.83437046,
        "meta_eccentricity": 0.00275037,
        "meta_inclination": 86.3244,
        "meta_ra_of_asc_node": 294.248,
        "meta_arg_of_pericenter": 354.9458,
        "meta_mean_anomaly": 5.1482,
        "meta_ephemeris_type": 0,
        "meta_classification_type": "U",
        "meta_norad_cat_id": 35488,
        "meta_element_set_no": 999,
        "meta_rev_at_epoch": 88479,
        "meta_bstar": 0.0020499633,
        "meta_mean_motion_dot": 0.00016991,
        "meta_mean_motion_ddot": 0,
        "tle_line1": "1 35488U 97051QJ  25361.11819919  .00016991  00000+0  20500-2 0  9990",
        "tle_line2": "2 35488  86.3244 294.2480 0027503 354.9458   5.1482 14.83437046884797"
      },
      "geometry": {
        "type": "Point",
        "coordinates": [
          -68.10055845119943,
          -28.60306703107552
        ]
      }
    },
    {
      "type": "Feature",
      "properties": {
        "norad_id": 35616,
        "name": "IRIDIUM 33 DEB",
        "group": "iridium-33-debris",
        "lat": 62.0026390253186,
        "lon": -14.248174922383905,
        "alt_km": 611.4841593596984,
        "timestamp": "2025-12-27T20:30:59.665774+00:00",
        "meta_object_name": "IRIDIUM 33 DEB",
        "meta_object_id": "1997-051QN",
        "meta_epoch": "2025-12-21T16:46:45.287328",
        "meta_mean_motion": 14.82015021,
        "meta_eccentricity": 0.00114093,
        "meta_inclination": 86.3545,
        "meta_ra_of_asc_node": 341.6744,
        "meta_arg_of_pericenter": 134.0095,
        "meta_mean_anomaly": 226.2069,
        "meta_ephemeris_type": 0,
        "meta_classification_type": "U",
        "meta_norad_cat_id": 35616,
        "meta_element_set_no": 999,
        "meta_rev_at_epoch": 87707,
        "meta_bstar": 0.0013754653,
        "meta_mean_motion_dot": 0.00010957,
        "meta_mean_motion_ddot": 0,
        "tle_line1": "1 35616U 97051QN  25355.69913527  .00010957  00000+0  13755-2 0  9999",
        "tle_line2": "2 35616  86.3545 341.6744 0011409 134.0095 226.2069 14.82015021877070"
      },
      "geometry": {
        "type": "Point",
        "coordinates": [
          -14.248174922383905,
          62.0026390253186
        ]
      }
    }
  ]
}